SUOMI NPP               
1 37849U 11061A   26155.23012389  .00000105  00000+0  71061-4 0  9991
2 37849  98.7951  96.1950 0002208  34.5354 325.5965 14.19514600756608
YAOGAN-12               
1 37875U 11066B   26155.28670154  .00005396  00000+0  20966-3 0  9994
2 37875  97.1146 194.4623 0007966 272.0350  87.9977 15.26427913810079
BEIDOU-2 M4             
1 38251U 12018B   26152.01220469 -.00000079  00000+0  00000+0 0  9996
2 38251  55.6723 304.6348 0011062 278.2217  81.6260  1.86229761 95645
ARIRANG-3 (KOMPSAT-3)   
1 38338U 12025B   26155.23613785  .00000556  00000+0  11968-3 0  9992
2 38338  98.1171 112.9203 0006040 143.0525 217.1094 14.62194507749454
METOP-B                 
1 38771U 12049A   26155.30799780  .00000140  00000+0  84006-4 0  9990
2 38771  98.6509 207.0636 0002936  48.7465 311.3965 14.21429180711439
SJ-9A                   
1 38860U 12056A   26155.23124780  .00001344  00000+0  16127-3 0  9996
2 38860  97.6702 127.6523 0024210 302.1432  57.7435 14.85447394697662
COSMOS 2484 (RODNIK-S 6)
1 39059U 13001C   26155.26710537  .00000026  00000+0  11261-3 0  9992
2 39059  82.5026 229.9243 0027303  64.0585 296.3303 12.42938601606953
SARAL                   
1 39086U 13009A   26155.26188375  .00000089  00000+0  48584-4 0  9997
2 39086  98.5557 341.9931 0001443   4.3826 355.7370 14.32852755693754
STRAND-1                
1 39090U 13009E   26155.03670315  .00000293  00000+0  11292-3 0  9999
2 39090  98.3918 335.5952 0007387 270.6143  89.4198 14.37155097695170
BRITE-AUSTRIA           
1 39091U 13009F   26155.04391102  .00000216  00000+0  88188-4 0  9999
2 39091  98.3993 334.8055 0008968 280.8846  79.1332 14.36536752695164
GAOFEN-1                
1 39150U 13018A   26155.32272582  .00000064  00000+0  16549-4 0  9999
2 39150  97.9094 227.6513 0016106 311.4739  48.5088 14.76522099706344
NEE-01 PEGASO           
1 39151U 13018B   26154.46520451  .00003190  00000+0  30780-3 0  9990
2 39151  98.1207 298.1637 0012177 203.9081 156.1574 14.93586684708654
PROBA-V                 
1 39159U 13021A   26154.55418208  .00000074  00000+0  50465-4 0  9999
2 39159  98.3577 133.8344 0004486 157.0674 203.0707 14.23593894679173
ARIRANG-5 (KOMPSAT-5)   
1 39227U 13042A   26155.32992175  .00002216  00000+0  16244-3 0  9990
2 39227  97.6199 342.2100 0003744 157.9462 202.1926 15.04540844701926
GONETS-M 5              
1 39249U 13048A   26155.31591561  .00000029  00000+0  14142-3 0  9998
2 39249  82.4828 351.4086 0015688 240.1720 119.7800 12.42891546577289
GONETS-M 7              
1 39251U 13048C   26155.27910847  .00000046  00000+0  25992-3 0  9992
2 39251  82.4897 354.3471 0016472 241.6452 118.2967 12.42914466577238
FENGYUN 3C              
1 39260U 13052A   26155.25189646  .00000120  00000+0  82044-4 0  9995
2 39260  98.4980 129.7213 0015778  62.6755 297.6024 14.15751976656737
CASSIOPE                
1 39265U 13055A   26155.10145954  .00042676 -55731-6  47326-3 0  9995
2 39265  80.9147  82.5959 0297023 106.2984 257.1134 15.24017002665672
APRIZESAT 7             
1 39416U 13066A   26154.46842510  .00001374  00000+0  14142-3 0  9996
2 39416  97.7702 107.8862 0034277 256.3956 103.3444 14.91532678679184
ZACUBE-1 (TSHEPISOSAT)  
1 39417U 13066B   26154.94254392  .00004510  00000+0  35148-3 0  9999
2 39417  97.8107 117.2078 0039903 294.5657  65.1411 15.01095965678747
APRIZESAT 8             
1 39425U 13066K   26155.09268803  .00001269  00000+0  14319-3 0  9992
2 39425  97.8216 102.7439 0045204 330.7670  29.1018 14.87624717677722
